SatCatId,ObjectName,LaunchYear,OrbitalPeriod,LaunchMass,StatusCode,Status,UcsData,OrbitClass,LaunchSiteCountry,Owner,UseType,Purpose,LaunchVehicleClass,TLE1,TLE2
28884,GALAXY 15 (G-15),2005,1435.57,2033.0,P,Active,1,GEO,French Guiana,INTELSAT,Commercial,Communications,Ariane,1 28884U 05041A   22340.64008552  .00000045  00000+0  00000+0 0  9998,2 28884   0.2505  92.4144 0004260 178.6292 269.9753  1.00308571 62694
28885,SYRACUSE 3A,2005,1436.07,3725.0,+,Active,1,GEO,French Guiana,France,Military,Communications,Ariane,1 28885U 05041B   22341.41704118  .00000142  00000+0  00000+0 0  9994,2 28885   1.5563  91.2852 0003366 165.4292  16.6287  1.00274602 62816
28890,BEIJING 1,2005,98.53,166.0,+,Active,1,LEO,Russia,China,Commercial,Earth Observation,Kosmos,1 28890U 05043A   22341.48202750  .00000242  00000+0  58122-4 0  9998,2 28890  98.1376 100.9179 0014962 357.4994   2.6146 14.61553898912419
28891,TOPSAT,2005,98.51,-1.0,-,Inactive,0,LEO,Russia,UK,Unknown,Unknown,Unknown,1 28891U 05043B   22340.94647082  .00000257  00000+0  60850-4 0  9997,2 28891  98.1452 102.0551 0016816   2.8949 357.2338 14.61780994912289
28892,UWE-1,2005,98.32,-1.0,-,Inactive,0,LEO,Russia,Germany,Unknown,Unknown,Kosmos,1 28892U 05043C   22340.83094218  .00000935  00000+0  18496-3 0  9994,2 28892  98.1365 109.7865 0015169 323.5614  36.4555 14.64583188912711
28893,SINAH 1,2005,98.51,-1.0,+,Active,0,LEO,Russia,Iran,Unknown,Unknown,Kosmos,1 28893U 05043D   22340.61668233  .00000289  00000+0  67277-4 0  9999,2 28893  98.1323 101.1776 0014994 358.3423   1.7726 14.61818942912106
28894,SSETI EXPRESS (XO-53),2005,98.49,-1.0,-,Inactive,0,LEO,Russia,ESA,Unknown,Unknown,Kosmos,1 28894U 05043E   22340.91750674  .00000384  00000+0  85750-4 0  9996,2 28894  98.1449 102.9944 0016884   2.7963 357.3330 14.62061387912308
28895,CUBESAT XI-V,2005,98.31,-1.0,+,Active,0,LEO,Russia,Japan,Unknown,Unknown,Unknown,1 28895U 05043F   22341.03593027  .00000986  00000+0  19397-3 0  9999,2 28895  98.1292 110.0323 0015624 321.0727  38.9349 14.64701342912904
28897,NCUBE-2,2005,98.28,-1.0,-,Inactive,0,LEO,Russia,ESA,Unknown,Unknown,Kosmos,1 28897U 05043H   22340.85834958  .00001070  00000+0  20731-3 0  9990,2 28897  98.1254 110.7737 0014767 311.8693 205.8552 14.65244712905093
28898,MOZHAYETS 5 & RUBIN-5,2005,98.57,-1.0,UNK,Inactive,0,LEO,Russia,Germany,Unknown,Unknown,Kosmos,1 28898U 05043G   22340.79266672  .00000409  00000+0  93075-4 0  9993,2 28898  98.1867 102.6999 0020520  50.7200 309.5817 14.60909140534914
28899,INMARSAT 4-F2,2005,1436.08,5458.0,+,Active,1,GEO,Sea Launch Platform,INMARSAT,Commercial,Communications,Zenit,1 28899U 05044A   22341.49517560  .00000022  00000+0  00000+0 0  9990,2 28899   3.6386  38.8818 0003234 221.8006  57.7161  1.00271921 62582
28902,TELKOM 2,2005,1452.43,-1.0,-,Inactive,0,GEO,French Guiana,Indonesia,Unknown,Unknown,Ariane,1 28902U 05046A   22340.84573361  .00000033  00000+0  00000+0 0  9998,2 28902   1.4276  91.5476 0004172 158.3600 213.4746  0.99143856 62462
28903,SPACEWAY 2,2005,1436.1,5993.0,+,Active,1,GEO,French Guiana,USA,Commercial,Communications,Ariane,1 28903U 05046B   22340.62129894  .00000116  00000+0  00000+0 0  9995,2 28903   2.2966  86.2877 0001050 172.8684 261.0213  1.00271233 38420
28908,COSMOS 2416,2005,114.69,225.0,+,Active,1,LEO,Russia,Russia/USSR,Military,Communications,Kosmos,1 28908U 05048A   22340.63749806  .00000028  00000+0  10549-3 0  9999,2 28908  82.4709  51.6085 0008458 161.0437   8.5641 12.55525776777191
28909,GONETS-D1M 1,2005,114.72,-1.0,UNK,Inactive,0,LEO,Russia,Russia/USSR,Unknown,Unknown,Unknown,1 28909U 05048B   22340.66326144  .00000022  00000+0  70614-4 0  9993,2 28909  82.4706  53.7518 0008446 152.7650 321.8838 12.55216443776886
28911,INSAT-4A,2005,1451.59,-1.0,-,Inactive,0,GEO,French Guiana,India,Unknown,Unknown,Ariane,1 28911U 05049A   22336.81725919 -.00000135  00000+0  00000+0 0  9995,2 28911   3.1087  87.1958 0003210  79.9577 202.1653  0.99201689 32604
28912,METEOSAT-9 (MSG-2),2005,1436.02,2000.0,+,Active,1,GEO,French Guiana,EUMETSAT,Civil/Government,Earth Observation,Ariane,1 28912U 05049B   22340.77133896  .00000136  00000+0  00000+0 0  9993,2 28912   6.4102  65.1517 0001827 193.6884 140.1362  1.00277655 62153
28915,COSMOS 2419 [GLONASS-M],2005,675.71,-1.0,-,Inactive,0,MEO,Kazakhstan,Russia/USSR,Unknown,Unknown,Unknown,1 28915U 05050A   22340.39424390 -.00000059  00000+0  00000+0 0  9993,2 28915  66.0592 359.1522 0016208 331.0282 212.5129  2.13108022131914
28916,COSMOS 2418 [GLONASS-M],2005,675.72,-1.0,-,Inactive,0,MEO,Kazakhstan,Russia/USSR,Unknown,Unknown,Unknown,1 28916U 05050B   22340.20607721 -.00000059  00000+0  00000+0 0  9995,2 28916  66.0792 359.3006 0013119 284.9786 132.2883  2.13105536131797
28917,COSMOS 2417 [GLONASS],2005,675.73,-1.0,-,Inactive,0,MEO,Kazakhstan,Russia/USSR,Unknown,Unknown,Unknown,1 28917U 05050C   22340.49755374 -.00000060  00000+0  00000+0 0  9997,2 28917  66.0616 359.1759 0015596  99.5898 264.3108  2.13104382131774
28922,GIOVE-A,2005,850.41,-1.0,-,Inactive,0,MEO,Kazakhstan,ESA,Unknown,Unknown,Soyuz,1 28922U 05051A   22339.49860424 -.00000093  00000+0  00000+0 0  9991,2 28922  58.6076  27.4870 0024003 133.7468 228.6917  1.69329836104913
28924,EUTELSAT 174A,2005,1436.08,5000.0,+,Active,1,GEO,Kazakhstan,EUTELSAT,Commercial,Communications,Proton,1 28924U 05052A   22341.56079826  .00000025  00000+0  00000+0 0  9997,2 28924   0.9434  91.4444 0006569 164.2384 196.5295  1.00273411 62078
28931,ALOS (DAICHI),2006,98.4,-1.0,-,Inactive,0,LEO,Japan,Japan,Unknown,Unknown,JAXA H,1 28931U 06002A   22341.30843553  .00000767  00000+0  15679-3 0  9994,2 28931  97.9611 299.9381 0002092  87.2993 272.8461 14.63469966899707
28935,ECHOSTAR 10,2006,1436.1,4333.0,+,Active,1,GEO,Sea Launch Platform,USA,Commercial,Communications,Zenit,1 28935U 06003A   22340.66848428 -.00000041  00000+0  00000+0 0  9997,2 28935   0.0103 337.8207 0001549 252.9809 335.1116  1.00271844 61551
28937,HIMAWARI 7,2006,1453.46,-1.0,-,Inactive,0,GEO,Japan,Japan,Unknown,Unknown,JAXA H,1 28937U 06004A   22340.70805718  .00000005  00000+0  00000+0 0  9999,2 28937   2.4483  87.9595 0006129 127.4696 203.5595  0.99073687 61452
28939,AKARI (ASTRO-F),2006,92.43,-1.0,-,Inactive,0,LEO,Japan,Japan,Unknown,Unknown,JAXA Mu,1 28939U 06005A   22340.53233127  .00043182  00000+0  54031-3 0  9992,2 28939  98.1875  77.4622 0052799  18.4746 341.8408 15.57968787919753
28945,SPAINSAT,2006,1436.09,4100.0,+,Active,1,GEO,French Guiana,Spain,Commercial,Communications,Ariane,1 28945U 06007A   22339.87577953 -.00000203  00000+0  00000+0 0  9995,2 28945   0.0384 255.9124 0006282 355.0824 108.9521  1.00270631 61292
28946,EUTELSAT HOTBIRD 13E,2006,1436.08,3680.0,+,Active,1,GEO,French Guiana,EUTELSAT,Military,Communications,Ariane,1 28946U 06007B   22341.19511913  .00000101  00000+0  00000+0 0  9994,2 28946   0.0210 141.6156 0006714 106.6526 270.9043  1.00271280 61386
28980,ST5-A,2006,125.13,-1.0,-,Inactive,0,LEO,Western Range Airspace,USA,Unknown,Unknown,Unknown,1 28980U 06008A   22340.20333584  .00013445  24698-5  61820-3 0  9991,2 28980 105.5198  65.5978 1939683  22.9775 344.7302 11.50846906669935
28981,ST5-B,2006,110.36,-1.0,-,Inactive,0,LEO,Western Range Airspace,USA,Unknown,Unknown,Unknown,1 28981U 06008B   22340.82306200  .00070002  40647-5  11350-2 0  9991,2 28981 105.4567  95.3399 1288041 140.2725 230.0254 13.04891297708556
28982,ST5-C,2006,115.4,-1.0,-,Inactive,0,LEO,Western Range Airspace,USA,Unknown,Unknown,Unknown,1 28982U 06008C   22340.82763690  .00027613  31421-5  64821-3 0  9994,2 28982 105.5372 200.6818 1527956 132.3032 241.8113 12.47841198385054
29045,JCSAT-5A,2006,1436.15,4400.0,+,Active,1,GEO,Sea Launch Platform,Japan,Commercial,Communications,Zenit,1 29045U 06010A   22340.52251168 -.00000315  00000+0  00000+0 0  9996,2 29045   0.0165   3.9684 0002301 263.5678 127.9034  1.00268152 60846
29047,FORMOSAT-3 FM6,2006,100.76,70.0,-,Inactive,1,LEO,USA,Taiwan,Civil/Government,Earth Observation,Minotaur,1 29047U 06011A   22340.68214842  .00000369  00000+0  15963-3 0  9990,2 29047  71.9791  68.0874 0052095 304.2984  55.3227 14.29103079870209
29048,FORMOSAT-3 FM1,2006,100.77,70.0,-,Inactive,1,LEO,USA,Taiwan,Civil/Government,Earth Observation,Minotaur,1 29048U 06011B   22340.72429339  .00000411  00000+0  17662-3 0  9991,2 29048  71.9663 337.8723 0046095 265.7326  93.8542 14.29065444872642
29049,FORMOSAT-3 FM5,2006,100.76,-1.0,-,Inactive,0,LEO,USA,Taiwan,Unknown,Unknown,Unknown,1 29049U 06011C   22341.23522117  .00000324  00000+0  14312-3 0  9999,2 29049  72.0186 153.6075 0036590 282.4343  77.2700 14.29150238868534
29050,FORMOSAT-3 FM3,2006,98.64,70.0,-,Inactive,1,LEO,USA,Taiwan,Civil/Government,Earth Observation,Minotaur,1 29050U 06011D   22340.79617114  .00000753  00000+0  16529-3 0  9991,2 29050  72.0149 207.9050 0047669 125.4781 235.0835 14.59800121887936
29051,FORMOSAT-3 FM4,2006,100.76,70.0,-,Inactive,1,LEO,USA,Taiwan,Civil/Government,Earth Observation,Minotaur,1 29051U 06011E   22341.49239347  .00000434  00000+0  18247-3 0  9993,2 29051  72.0061  53.3715 0067306 164.7605 195.5581 14.29204666871178
29052,FORMOSAT-3 FM2,2006,100.75,70.0,-,Inactive,1,LEO,USA,Taiwan,Civil/Government,Earth Observation,Minotaur,1 29052U 06011F   22340.79560807  .00000385  00000+0  16614-3 0  9995,2 29052  72.0326 131.6974 0041585 241.9646 117.7282 14.29297631868538
29055,ASTRA 1KR,2006,1436.12,4332.0,+,Active,1,GEO,USA,SES,Commercial,Communications,Atlas,1 29055U 06012A   22340.69428512  .00000134  00000+0  00000+0 0  9994,2 29055   0.0233 290.4066 0005477 312.4223 101.7558  1.00270582 32803
29079,EROS B,2006,94.46,350.0,+,Active,1,LEO,Russia,Israel,Commercial/Military,Earth Observation,Start-1,1 29079U 06014A   22341.56797843  .00013808  00000+0  56510-3 0  9998,2 29079  97.3800  99.6505 0003411   7.8222  48.3198 15.24430510922742
29092,RSS-1 (YAOGAN 1),2006,97.06,-1.0,UNK,Inactive,0,LEO,PRC,China,Unknown,Unknown,Unknown,1 29092U 06015A   22341.00867152  .00000566  00000+0  74997-4 0  9991,2 29092  97.8583   6.4152 0001452  89.8578 270.2802 14.83640608898623
